#cP2023  8 31  0  0  0.00000000      96 ORBIT IGS20 HLM  IGS
## 2277 345600.00000000   900.00000000 60187 0.0000000000000
+   32   G01G02G03G04G05G06G07G08G09G10G11G12G13G14G15G16G17
+        G18G19G20G21G22G23G24G25G26G27G28G29G30G31G32  0  0
+          0  0  0  0  0  0  0  0  0  0  0  0  0  0  0  0  0
+          0  0  0  0  0  0  0  0  0  0  0  0  0  0  0  0  0
+          0  0  0  0  0  0  0  0  0  0  0  0  0  0  0  0  0
++         2  2  2  3  2  2  2  2  2  2  2  2  2  2  2  2  1
++         2  2  2  2  2  2  2  2  2  2  2  2  2  2  2  0  0
++         0  0  0  0  0  0  0  0  0  0  0  0  0  0  0  0  0
++         0  0  0  0  0  0  0  0  0  0  0  0  0  0  0  0  0
++         0  0  0  0  0  0  0  0  0  0  0  0  0  0  0  0  0
%c G  cc GPS ccc cccc cccc cccc cccc ccccc ccccc ccccc ccccc
%c cc cc ccc ccc cccc cccc cccc cccc ccccc ccccc ccccc ccccc
%f  1.2500000  1.025000000  0.00000000000  0.000000000000000
%f  0.0000000  0.000000000  0.00000000000  0.000000000000000
%i    0    0    0    0      0      0      0      0         0
%i    0    0    0    0      0      0      0      0         0
/* RAPID ORBIT COMBINATION FROM WEIGHTED AVERAGE OF:        
/* cod emr esa gfz grg jgx jpl ngs sio usn whu              
/* REFERENCED TO IGS TIME (IGST) AND TO WEIGHTED MEAN POLE: 
/* PCV:IGS20      OL/AL:FES2014b NONE     Y  ORB:CMB CLK:CMB
*  2023  8 31 18 45  0.00000000
PG01 -14160.777001  20033.284603   9387.647882    166.737489  6  5  6  85       
PG02 -15512.180228  14531.115542  16319.189989   -559.265030  3  7  6  91       
PG03 -19290.727708  12557.498655 -13298.042038   -159.528012  6  3  5  69       
PG04  -8611.029599  13096.126792 -21417.690383    142.347625  6  7  6 106       
PG05  26124.956982  -4881.636370  -1628.439438   -140.949307  4  4  5 118       
PG06   8273.127148  15381.249446 -19920.387189    558.018972  7  8  6  97       
PG07  -4420.895343  25300.622841   6149.266542     80.106457  4  8  5  72       
PG08 -16668.110731   3025.046770  20476.121849   -139.924112  2  9  3 109       
PG09    439.396595  19581.892018 -17996.542899    -72.075075  5  9  7  95       
PG10 -11924.220835 -11970.549845  20754.601381    -51.529937  6  8  6  99       
PG11  15504.306120   1410.559654 -21500.281628   -346.726528  5  7  6  69       
PG12  22614.907929  -9648.790981 -10219.820775   -419.437648  6     5  96       
PG13  18602.276697   6879.627308  17577.624159    566.959314  5  5  3  86       
PG14   8073.787250  14091.152196  21063.807988    171.019755  5  6  6  76       
PG15  15806.525528  -5890.571835  20089.884934     73.081457  4  3  3  72       
PG16 -26183.468076  -1613.937625  -5794.727350   -460.720134  5  7  5 109       
PG17  12602.192543  22810.215723   5236.973156    723.370357  5  7     86       
PG18   3642.633484 -24973.301442   7983.193296   -401.802219  8 10  5  97       
PG19  16960.596139  20369.053686  -3756.178551    365.225769  6  8  4  86       
PG20  23424.824671    775.207529 -12274.939528    414.284209  4  5  6 119       
PG21 -15943.945187  11424.005047  17991.568401    149.778416  5  5  6  98       
PG22  15005.910948  11798.424633  18813.799968    130.811262  4  4  4  62       
PG23   2243.158684 -15390.859141  21510.062224     62.194900  7  8  6  89       
PG24  14669.305845 -17006.448940  13469.714922   -306.251607  7  7  6  93       
PG25  10091.988095 -15797.569466 -19028.580061    465.274073  8  2  6  84       
PG26 -21088.862325  -6254.988245 -15248.398080    230.625183  4  6  2 114       
PG27 -20657.534796  -9346.690779  13909.377890    -31.715370  5  8  7 113       
PG28  -8140.521958 -17156.265364 -18592.516412     -3.953352  6  7  8  93       
PG29   1077.131417 -19401.622769 -18106.571925   -608.702961  7  8  4 105       
PG30   3022.981927  22206.942060  14172.965502   -491.811747  5  4  4  46       
PG31 -13893.101753  -6801.375861 -21757.106676   -222.704214  5  5  4 115       
PG32 -16705.128689 -20758.574369   1348.931189   -550.300614  5  5  5  96       
*  2023  8 31 19  0  0.00000000
PG01 -13919.085069  18768.945370  11953.025791    166.736414  6  4  6  71       
PG02 -15224.855810  12659.244114  18121.155077   -559.261179  3  7  6  65       
PG03 -20659.500261  12676.817702 -10872.338531   -159.510505  6  3  5  81       
PG04 -10234.844166  11230.277014 -21770.659594    142.357788  6  6  5  94       
PG05  25867.074917  -4578.752355  -4462.753997   -140.950931  4  4  5  94       
PG06   7491.755022  17445.039652 -18473.378414    558.013537  7  9  5  92       
PG07  -4868.792677  25681.081051   3355.909880     80.097051  4  8  6  78       
PG08 -18188.159992   1316.147254  19372.287005   -139.926619  2  9  2 109       
PG09  -1125.012619  18130.616846 -19440.257814    -72.066108  6  8  7  80       
PG10  -9613.770582 -12517.900202  21592.286211    -51.531145  6  8  5 101       
PG11  14658.091468   3741.864781 -21816.396062   -346.742602  5  7  6  68       
PG12  23623.895709  -9567.391450  -7602.483790   -419.441652  6  2  5  99       
PG13  19571.875490   8553.272108  15731.149957    566.963123  5  5  3  72       
PG14   5688.621305  14573.337949  21495.864494    171.030149  5  5  6  86       
PG15  17533.884700  -4308.884390  19078.215893     73.084560  4  4  3  61       
PG16 -25444.246646  -1904.398321  -8475.645063   -460.715605  6  7  5 111       
PG17  11994.813594  22390.668642   7990.120653    723.370512  5  7     78       
PG18   4095.160532 -25619.981876   5224.854325   -401.813885  8 10  6 100       
PG19  16945.640467  20679.394493   -913.787572    365.230096  6  8  4  74       
PG20  22079.964478   1575.220924 -14500.838660    414.282392  4  5  6  83       
PG21 -15644.262028   9360.659741  19508.357540    149.777310  6  6  6  97       
PG22  12887.351515  12177.682758  20152.638245    130.804561  3  5  4  72       
PG23   4603.444243 -15907.338869  20729.605336     62.199428  7  7  5 109       
PG24  14559.039594 -15248.901682  15522.444501   -306.261539  7  7  6  99       
PG25  12118.214727 -16102.987832 -17478.880342    465.275951  8  2  6  98       
PG26 -19393.016416  -6955.781750 -17068.481399    230.623509  4  6  1 109       
PG27 -21529.103309 -10557.813262  11606.094977    -31.721236  5  8  7 118       
PG28  -7448.290591 -19069.179233 -16944.355339     -3.957352  6  8  7  86       
PG29   2484.446292 -17775.254216 -19590.288995   -608.703607  7  8  3 111       
PG30   2300.160168  23539.309435  11942.092647   -491.808775  5  6  5  66       
PG31 -13052.209164  -9088.313985 -21399.884317   -222.704847  5  5  5 113       
PG32 -16330.861778 -20703.580489   4169.534857   -550.306378  5  6  5 105       
*  2023  8 31 19 15  0.00000000
PG01 -13673.758424  17218.247054  14305.234829    166.735317  6  4  6  80       
PG02 -15007.391904  10597.266085  19620.958421   -559.257235  4  7  7  73       
PG03 -21745.826023  12793.729265  -8259.641035   -159.493017  6  3  5  71       
PG04 -11966.468260   9439.546676 -21748.544682    142.368028  6  5  5  93       
PG05  25326.080495  -4164.900566  -7221.007161   -140.951659  4  4  6  86       
PG06   6874.853938  19372.832978 -16705.955593    558.008100  7  9  5  94       
PG07  -5220.753580  25771.545661    503.474123     80.087158  4  7  6  77       
PG08 -19687.389617   -211.241851  17936.765556   -139.928687  3  9  2 105       
PG09  -2866.766810  16663.895424 -20551.194723    -72.057125  6  7  7  78       
PG10  -7264.229799 -13214.170221  22066.103712    -51.532005  7  7  5 104       
PG11  13932.125890   6128.053784 -21756.626425   -346.758724  6  8  6  68       
PG12  24340.437751  -9476.396778  -4854.870844   -419.445779  6  3  5  98       
PG13  20491.719235   9991.632657  13612.926388    566.967772  5  6  3  64       
PG14   3301.885435  15181.508077  21559.119544    171.040560  6  5  6  67       
PG15  19221.409797  -2893.399792  17727.173803     73.087724  4  5  3  72       
PG16 -24435.941227  -2286.278788 -11015.931747   -460.710799  6  6  4 103       
PG17  11166.104213  21778.942958  10606.835471    723.371004  4  6     72       
PG18   4427.664180 -25982.266543   2375.630947   -401.825501  8 10  6  95       
PG19  16742.430098  20744.234284   1943.977645    365.234485  6  8  4  75       
PG20  20561.602161   2542.756085 -16474.432188    414.280637  4  6  6  86       
PG21 -15427.829097   7144.838281  20694.751694    149.777039  6  6  6  97       
PG22  10667.757571  12691.195577  21155.503455    130.797774  3  5  3  82       
PG23   6829.828517 -16518.786312  19591.325783     62.203893  7  6  5  97       
PG24  14495.009111 -13271.209942  17296.300533   -306.271464  7  6  6 104       
PG25  13947.120760 -16457.240282 -15632.340917    465.277831  8  3  6  72       
PG26 -17555.326678  -7801.471486 -18601.169063    230.622023  4  6    110       
PG27 -22268.992783 -11528.174165   9104.814456    -31.727050  6  8  7 113       
PG28  -6900.619047 -20817.609717 -15005.085071     -3.961315  6  8  7  91       
PG29   4075.606063 -16116.486105 -20737.242953   -608.703888  7  8  3 105       
PG30   1707.940779  24650.777698   9504.199626   -491.805795  6  7  5  39       
PG31 -12344.899003 -11361.299736 -20678.672096   -222.705214  5  6  4 111       
PG32 -15729.454802 -20450.448942   6919.482031   -550.312120  5  6  5 103       
EOF
